NORAD_CAT_ID,OBJECT_NAME,OBJECT_TYPE,EPOCH,MEAN_MOTION,ECCENTRICITY,INCLINATION,RA_OF_ASC_NODE,ARG_OF_PERICENTER,MEAN_ANOMALY,BSTAR,MEAN_MOTION_DOT,MEAN_MOTION_DDOT,TLE_LINE0,TLE_LINE1,TLE_LINE2,SEMIMAJOR_AXIS,PERIOD,APOGEE,PERIGEE,DECAYED
53280.0,STARLINK-4169,PAYLOAD,2023-11-09 19:44:06,15.08849202,0.0001583,53.2187,358.4833,84.8109,275.3064,0.00029133,4.353e-05,0.0,0 STARLINK-4169,1 53280U 22086AQ  23313.82229594  .00004353  00000-0  29133-3 0  9995,2 53280  53.2187 358.4833 0001583  84.8109 275.3064 15.08849202 73384,6917.852,95.437,540.812,538.622,0.0
53280.0,STARLINK-4169,PAYLOAD,2023-11-10 10:02:34,15.08848866,0.0001387,53.218,355.8126,92.1053,268.0098,7.1642e-05,8.53e-06,0.0,0 STARLINK-4169,1 53280U 22086AQ  23314.41845183  .00000853  00000-0  71642-4 0  9993,2 53280  53.2180 355.8126 0001387  92.1053 268.0098 15.08848866 73476,6917.853,95.437,540.678,538.759,0.0
53280.0,STARLINK-4169,PAYLOAD,2023-11-10 19:34:52,15.08849747,0.0001365,53.218,354.0285,88.8335,271.2814,9.4148e-05,1.211e-05,0.0,0 STARLINK-4169,1 53280U 22086AQ  23314.81588966  .00001211  00000-0  94148-4 0  9995,2 53280  53.2180 354.0285 0001365  88.8335 271.2814 15.08849747 73532,6917.851,95.437,540.66,538.771,0.0
53280.0,STARLINK-4169,PAYLOAD,2023-11-11 09:53:21,15.08843182,0.0001684,53.2189,351.3544,92.5211,267.5974,-3.42e-05,-8.32e-06,0.0,0 STARLINK-4169,1 53280U 22086AQ  23315.41205287 -.00000832  00000-0 -34200-4 0  9997,2 53280  53.2189 351.3544 0001684  92.5211 267.5974 15.08843182 73451,6917.871,95.437,540.901,538.571,0.0
53280.0,STARLINK-4169,PAYLOAD,2023-11-11 19:25:40,15.08844469,0.0001498,53.2177,349.5688,79.8575,280.2586,-5.6437e-05,-1.186e-05,0.0,0 STARLINK-4169,1 53280U 22086AQ  23315.80949125 -.00001186  00000-0 -56437-4 0  9995,2 53280  53.2177 349.5688 0001498  79.8575 280.2586 15.08844469 73685,6917.867,95.437,540.768,538.695,0.0
53280.0,STARLINK-4169,PAYLOAD,2023-11-12 11:19:31,15.08847886,0.0001533,53.2176,346.5954,86.4693,273.6474,0.00012673,1.73e-05,0.0,0 STARLINK-4169,1 53280U 22086AQ  23316.47189027  .00001730  00000-0  12673-3 0  9992,2 53280  53.2176 346.5954 0001533  86.4693 273.6474 15.08847886 73613,6917.856,95.437,540.782,538.661,0.0
53280.0,STARLINK-4169,PAYLOAD,2023-11-12 19:16:27,15.08846428,0.0001635,53.2181,345.106,85.185,274.9329,4.1212e-05,3.68e-06,0.0,0 STARLINK-4169,1 53280U 22086AQ  23316.80309081  .00000368  00000-0  41212-4 0  9991,2 53280  53.2181 345.1060 0001635  85.1850 274.9329 15.08846428 73834,6917.861,95.437,540.857,538.595,0.0
53280.0,STARLINK-4169,PAYLOAD,2023-11-13 01:37:59,15.08840928,0.0001531,53.2176,343.9164,83.0468,277.0698,0.00014103,1.957e-05,0.0,0 STARLINK-4169,1 53280U 22086AQ  23317.06805290  .00001957  00000-0  14103-3 0  9996,2 53280  53.2176 343.9164 0001531  83.0468 277.0698 15.08840928 73704,6917.878,95.437,540.802,538.683,0.0
53280.0,STARLINK-4169,PAYLOAD,2023-11-13 11:10:17,15.08853898,0.0001431,53.2166,342.1328,84.0904,276.0252,0.00022114,3.235e-05,0.0,0 STARLINK-4169,1 53280U 22086AQ  23317.46548524  .00003235  00000-0  22114-3 0  9996,2 53280  53.2166 342.1328 0001431  84.0904 276.0252 15.08853898 73762,6917.838,95.437,540.693,538.713,0.0
53280.0,STARLINK-4169,PAYLOAD,2023-11-13 19:07:14,15.08841337,0.0001561,53.2174,340.6473,76.5141,283.6025,6.6494e-05,7.7e-06,0.0,0 STARLINK-4169,1 53280U 22086AQ  23317.79669187  .00000770  00000-0  66494-4 0  9992,2 53280  53.2174 340.6473 0001561  76.5141 283.6025 15.08841337 73811,6917.876,95.437,540.821,538.661,0.0
53280.0,STARLINK-4169,PAYLOAD,2023-11-14 07:50:19,15.08841432,0.0001564,53.2174,338.2662,82.2561,277.8608,6.2412e-05,7.05e-06,0.0,0 STARLINK-4169,1 53280U 22086AQ  23318.32661200  .00000705  00000-0  62412-4 0  9994,2 53280  53.2174 338.2662 0001564  82.2561 277.8608 15.08841432 74063,6917.876,95.437,540.823,538.659,0.0
53280.0,STARLINK-4169,PAYLOAD,2023-11-14 18:58:01,15.0884242,0.0001517,53.217,336.1849,84.8338,275.2827,6.4985e-05,7.46e-06,0.0,0 STARLINK-4169,1 53280U 22086AQ  23318.79029159  .00000746  00000-0  64985-4 0  9998,2 53280  53.2170 336.1849 0001517  84.8338 275.2827 15.08842420 74132,6917.873,95.437,540.787,538.689,0.0
53280.0,STARLINK-4169,PAYLOAD,2023-11-15 01:19:33,15.08838909,0.000147,53.2166,334.9963,82.7156,277.4003,4.4046e-05,4.13e-06,0.0,0 STARLINK-4169,1 53280U 22086AQ  23319.05525357  .00000413  00000-0  44046-4 0  9996,2 53280  53.2166 334.9963 0001470  82.7156 277.4003 15.08838909 74006,6917.884,95.438,540.766,538.732,0.0
53280.0,STARLINK-4169,PAYLOAD,2023-11-15 10:51:52,15.08846504,0.0001549,53.2173,333.2111,87.9518,272.1652,9.3497e-05,1.201e-05,0.0,0 STARLINK-4169,1 53280U 22086AQ  23319.45268977  .00001201  00000-0  93497-4 0  9992,2 53280  53.2173 333.2111 0001549  87.9518 272.1652 15.08846504 74234,6917.861,95.437,540.797,538.654,0.0
53280.0,STARLINK-4169,PAYLOAD,2023-11-16 01:10:21,15.08832576,0.0001633,53.2172,330.5344,90.1817,269.9362,0.00026111,3.869e-05,0.0,0 STARLINK-4169,1 53280U 22086AQ  23320.04885827  .00003869  00000-0  26111-3 0  9998,2 53280  53.2172 330.5344 0001633  90.1817 269.9362 15.08832576 74150,6917.903,95.438,540.898,538.638,0.0
53280.0,STARLINK-4169,PAYLOAD,2023-11-16 07:31:53,15.08842028,0.0001656,53.2179,329.3448,93.0785,267.0397,0.00010781,1.428e-05,0.0,0 STARLINK-4169,1 53280U 22086AQ  23320.31381288  .00001428  00000-0  10781-3 0  9995,2 53280  53.2179 329.3448 0001656  93.0785 267.0397 15.08842028 74193,6917.874,95.437,540.885,538.594,0.0
53280.0,STARLINK-4169,PAYLOAD,2023-11-17 05:47:17,15.08838094,0.0001706,53.2184,325.1812,96.0447,264.074,5.3637e-05,5.66e-06,0.0,0 STARLINK-4169,1 53280U 22086AQ  23321.24117692  .00000566  00000-0  53637-4 0  9994,2 53280  53.2184 325.1812 0001706  96.0447 264.0740 15.08838094 74335,6917.886,95.438,540.931,538.571,0.0
53280.0,STARLINK-4169,PAYLOAD,2023-11-17 16:54:59,15.0884291,0.0001595,53.2184,323.1001,88.8205,271.2969,-3.5211e-06,-3.44e-06,0.0,0 STARLINK-4169,1 53280U 22086AQ  23321.70485503 -.00000344  00000-0 -35211-5 0  9999,2 53280  53.2184 323.1001 0001595  88.8205 271.2969 15.08842910 74571,6917.871,95.437,540.84,538.633,0.0
53280.0,STARLINK-4169,PAYLOAD,2023-11-18 08:48:51,15.08834493,0.0001685,53.2193,320.1307,99.8913,260.2269,2.0554e-05,3.9e-07,0.0,0 STARLINK-4169,1 53280U 22086AQ  23322.36726290  .00000039  00000-0  20554-4 0  9995,2 53280  53.2193 320.1307 0001685  99.8913 260.2269 15.08834493 74506,6917.897,95.438,540.928,538.597,0.0
53280.0,STARLINK-4169,PAYLOAD,2023-11-18 16:45:47,15.08838938,0.0001823,53.2192,318.6437,119.7589,240.3585,-4.7208e-05,-1.039e-05,0.0,0 STARLINK-4169,1 53280U 22086AQ  23322.69846133 -.00001039  00000-0 -47208-4 0  9998,2 53280  53.2192 318.6437 0001823 119.7589 240.3585 15.08838938 74728,6917.884,95.438,541.01,538.488,0.0
53280.0,STARLINK-4169,PAYLOAD,2023-11-19 07:04:15,15.08826795,0.0001655,53.2188,315.9667,97.7741,262.3439,0.00030134,4.509e-05,0.0,0 STARLINK-4169,1 53280U 22086AQ  23323.29462251  .00004509  00000-0  30134-3 0  9992,2 53280  53.2188 315.9667 0001655  97.7741 262.3439 15.08826795 74816,6917.921,95.438,540.931,538.641,0.0
53280.0,STARLINK-4169,PAYLOAD,2023-11-19 16:36:34,15.08835242,0.0001518,53.2178,314.1805,101.943,258.1733,0.00020657,3.001e-05,0.0,0 STARLINK-4169,1 53280U 22086AQ  23323.69206076  .00003001  00000-0  20657-3 0  9992,2 53280  53.2178 314.1805 0001518 101.9430 258.1733 15.08835242 74706,6917.895,95.438,540.81,538.71,0.0
53280.0,STARLINK-4169,PAYLOAD,2023-11-20 06:55:02,15.08837264,0.0001521,53.2181,311.5051,86.2244,273.8922,0.00011127,1.483e-05,0.0,0 STARLINK-4169,1 53280U 22086AQ  23324.28822350  .00001483  00000-0  11127-3 0  9991,2 53280  53.2181 311.5051 0001521  86.2244 273.8922 15.08837264 74964,6917.889,95.438,540.806,538.702,0.0
53280.0,STARLINK-4169,PAYLOAD,2023-11-20 22:48:53,15.08844837,0.0001723,53.2191,308.5319,85.6561,274.4628,7.976e-05,9.82e-06,0.0,0 STARLINK-4169,1 53280U 22086AQ  23324.95062000  .00000982  00000-0  79760-4 0  9994,2 53280  53.2191 308.5319 0001723  85.6561 274.4628 15.08844837 75063,6917.866,95.437,540.923,538.539,0.0
53280.0,STARLINK-4169,PAYLOAD,2023-11-21 03:35:02,15.08846015,0.0001687,53.2187,307.64,85.8202,274.2983,8.7904e-05,1.111e-05,0.0,0 STARLINK-4169,1 53280U 22086AQ  23325.14933838  .00001111  00000-0  87904-4 0  9996,2 53280  53.2187 307.6400 0001687  85.8202 274.2983 15.08846015 74928,6917.862,95.437,540.894,538.56,0.0
53280.0,STARLINK-4169,PAYLOAD,2023-11-21 06:45:48,15.08851614,0.0001552,53.2179,307.0454,89.6343,270.4827,0.0001115,1.488e-05,0.0,0 STARLINK-4169,1 53280U 22086AQ  23325.28181390  .00001488  00000-0  11150-3 0  9995,2 53280  53.2179 307.0454 0001552  89.6343 270.4827 15.08851614 75119,6917.845,95.437,540.784,538.636,0.0
53280.0,STARLINK-4169,PAYLOAD,2023-11-22 03:25:50,15.08838487,0.0001678,53.218,303.1787,91.4263,268.6921,4.3505e-05,4.04e-06,0.0,0 STARLINK-4169,1 53280U 22086AQ  23326.14294330  .00000404  00000-0  43505-4 0  9997,2 53280  53.2180 303.1787 0001678  91.4263 268.6921 15.08838487 75070,6917.885,95.438,540.911,538.589,0.0
53280.0,STARLINK-4169,PAYLOAD,2023-11-22 08:11:59,15.08846524,0.0001484,53.2175,302.285,102.7181,257.3977,7.6919e-05,9.37e-06,0.0,0 STARLINK-4169,1 53280U 22086AQ  23326.34165604  .00000937  00000-0  76919-4 0  9996,2 53280  53.2175 302.2850 0001484 102.7181 257.3977 15.08846524 75106,6917.86,95.437,540.752,538.699,0.0
53280.0,STARLINK-4169,PAYLOAD,2023-11-23 04:51:59,15.08852196,0.0001769,53.2193,298.4177,112.7466,247.3713,9.4665e-05,1.219e-05,0.0,0 STARLINK-4169,1 53280U 22086AQ  23327.20276962  .00001219  00000-0  94665-4 0  9994,2 53280  53.2193 298.4177 0001769 112.7466 247.3713 15.08852196 75409,6917.843,95.437,540.932,538.484,0.0
53280.0,STARLINK-4169,PAYLOAD,2023-11-24 03:07:24,15.08831403,0.0001678,53.2172,294.2535,121.7176,238.398,-3.2498e-05,-8.05e-06,0.0,0 STARLINK-4169,1 53280U 22086AQ  23328.13014499 -.00000805  00000-0 -32498-4 0  9990,2 53280  53.2172 294.2535 0001678 121.7176 238.3980 15.08831403 75375,6917.907,95.438,540.932,538.611,0.0
